[{"OBJECT_NAME":"JILIN-1 06","OBJECT_ID":"2017-074C","EPOCH":"2026-03-09T22:46:57.173376","MEAN_MOTION":15.32444387,"ECCENTRICITY":0.00061285,"INCLINATION":97.4715,"RA_OF_ASC_NODE":171.0354,"ARG_OF_PERICENTER":223.0031,"MEAN_ANOMALY":137.0732,"EPHEMERIS_TYPE":0,"CLASSIFICATION_TYPE":"U","NORAD_CAT_ID":43024,"ELEMENT_SET_NO":999,"REV_AT_EPOCH":45863,"BSTAR":0.00028431628,"MEAN_MOTION_DOT":8.833e-5,"MEAN_MOTION_DDOT":0},{"OBJECT_NAME":"STARLINK-35308","OBJECT_ID":"2025-221AB","EPOCH":"2026-03-09T10:07:02.317440","MEAN_MOTION":15.30208972,"ECCENTRICITY":0.00010463,"INCLINATION":53.1576,"RA_OF_ASC_NODE":89.4942,"ARG_OF_PERICENTER":85.5307,"MEAN_ANOMALY":274.5814,"EPHEMERIS_TYPE":0,"CLASSIFICATION_TYPE":"U","NORAD_CAT_ID":65848,"ELEMENT_SET_NO":999,"REV_AT_EPOCH":2604,"BSTAR":0.00059571989,"MEAN_MOTION_DOT":0.0001733,"MEAN_MOTION_DDOT":0}]
